IXPE                    
1 49954U 21121A   24152.00001157  .00002953  00000+0  17616-3 0  9998
2 49954   0.2285 161.0600 0009653  23.6639 304.6625 14.98030800  5516
